start=new Date('2023-03-23T00:00:00.000Z').valueOf();
sats=[{"DECAY_DATE":null,"MEAN_MOTION_DDOT":"0.0000000000000","EPOCH":"2023-03-21T17:31:48.594720","REV_AT_EPOCH":"3091","RCS_SIZE":"LARGE","ARG_OF_PERICENTER":"97.1401","TLE_LINE1":"1 53723U 22107Z   23080.73042355 -.00012345  00000-0 -75887-3 0  9999","GP_ID":"228623200","PERIOD":"95.437","MEAN_ELEMENT_THEORY":"SGP4","ECCENTRICITY":"0.00014710","NORAD_CAT_ID":"53723","SITE":"AFETR","SEMIMAJOR_AXIS":"6917.877","EPHEMERIS_TYPE":"0","COUNTRY_CODE":"US","BSTAR":"-0.00075887000000","OBJECT_TYPE":"PAYLOAD","OBJECT_NAME":"STARLINK-4705","TLE_LINE2":"2 53723  53.2167  80.1221 0001471  97.1401 262.9759 15.08841236 30916","OBJECT_ID":"2022-107Z","LAUNCH_DATE":"2022-09-05","ELEMENT_SET_NO":"999","MEAN_ANOMALY":"262.9759","REF_FRAME":"TEME","MEAN_MOTION":"15.08841236","CLASSIFICATION_TYPE":"U","PERIAPSIS":"538.724","FILE":"3866953","CENTER_NAME":"EARTH","MEAN_MOTION_DOT":"-0.00012345","APOAPSIS":"540.759","RA_OF_ASC_NODE":"80.1221","INCLINATION":"53.2167","TIME_SYSTEM":"UTC"},{"EPHEMERIS_TYPE":"0","SITE":"AFETR","NORAD_CAT_ID":"53724","SEMIMAJOR_AXIS":"6917.861","OBJECT_TYPE":"PAYLOAD","BSTAR":"0.00052817000000","COUNTRY_CODE":"US","LAUNCH_DATE":"2022-09-05","OBJECT_ID":"2022-107AA","TLE_LINE2":"2 53724  53.2170  77.6736 0001175  95.8313 264.2813 15.08846265 30396","OBJECT_NAME":"STARLINK-4663","ARG_OF_PERICENTER":"95.8313","RCS_SIZE":"LARGE","REV_AT_EPOCH":"3039","GP_ID":"228630334","TLE_LINE1":"1 53724U 22107AA  23081.24835069  .00008129  00000-0  52817-3 0  9990","MEAN_MOTION_DDOT":"0.0000000000000","DECAY_DATE":null,"EPOCH":"2023-03-22T05:57:37.499616","ECCENTRICITY":"0.00011750","PERIOD":"95.437","MEAN_ELEMENT_THEORY":"SGP4","APOAPSIS":"540.539","MEAN_MOTION_DOT":"0.00008129","CENTER_NAME":"EARTH","TIME_SYSTEM":"UTC","RA_OF_ASC_NODE":"77.6736","INCLINATION":"53.2170","MEAN_ANOMALY":"264.2813","CLASSIFICATION_TYPE":"U","REF_FRAME":"TEME","MEAN_MOTION":"15.08846265","ELEMENT_SET_NO":"999","FILE":"3867232","PERIAPSIS":"538.913"},{"CENTER_NAME":"EARTH","APOAPSIS":"540.656","MEAN_MOTION_DOT":"0.00003792","INCLINATION":"53.2176","RA_OF_ASC_NODE":"77.7212","TIME_SYSTEM":"UTC","ELEMENT_SET_NO":"999","CLASSIFICATION_TYPE":"U","REF_FRAME":"TEME","MEAN_MOTION":"15.08846615","MEAN_ANOMALY":"261.0924","PERIAPSIS":"538.794","FILE":"3867232","OBJECT_TYPE":"PAYLOAD","BSTAR":"0.00025615000000","COUNTRY_CODE":"US","EPHEMERIS_TYPE":"0","NORAD_CAT_ID":"53726","SITE":"AFETR","SEMIMAJOR_AXIS":"6917.860","OBJECT_NAME":"STARLINK-4697","LAUNCH_DATE":"2022-09-05","OBJECT_ID":"2022-107AC","TLE_LINE2":"2 53726  53.2176  77.7212 0001346  99.0221 261.0924 15.08846615 30395","EPOCH":"2023-03-22T06:08:14.285760","DECAY_DATE":null,"MEAN_MOTION_DDOT":"0.0000000000000","GP_ID":"228629833","TLE_LINE1":"1 53726U 22107AC  23081.25572090  .00003792  00000-0  25615-3 0  9992","RCS_SIZE":"LARGE","ARG_OF_PERICENTER":"99.0221","REV_AT_EPOCH":"3039","MEAN_ELEMENT_THEORY":"SGP4","PERIOD":"95.437","ECCENTRICITY":"0.00013460"},{"OBJECT_ID":"2022-107AD","LAUNCH_DATE":"2022-09-05","TLE_LINE2":"2 53727  53.2162  77.7879 0001191  97.0756 263.0372 15.08846872 30393","OBJECT_NAME":"STARLINK-4701","OBJECT_TYPE":"PAYLOAD","BSTAR":"0.00059332000000","COUNTRY_CODE":"US","EPHEMERIS_TYPE":"0","SITE":"AFETR","NORAD_CAT_ID":"53727","SEMIMAJOR_AXIS":"6917.859","ECCENTRICITY":"0.00011910","MEAN_ELEMENT_THEORY":"SGP4","PERIOD":"95.437","GP_ID":"228630321","TLE_LINE1":"1 53727U 22107AD  23081.26677377  .00009169  00000-0  59332-3 0  9995","ARG_OF_PERICENTER":"97.0756","RCS_SIZE":"LARGE","REV_AT_EPOCH":"3039","EPOCH":"2023-03-22T06:24:09.253728","MEAN_MOTION_DDOT":"0.0000000000000","DECAY_DATE":null,"TIME_SYSTEM":"UTC","INCLINATION":"53.2162","RA_OF_ASC_NODE":"77.7879","APOAPSIS":"540.548","MEAN_MOTION_DOT":"0.00009169","CENTER_NAME":"EARTH","FILE":"3867232","PERIAPSIS":"538.900","CLASSIFICATION_TYPE":"U","REF_FRAME":"TEME","MEAN_MOTION":"15.08846872","MEAN_ANOMALY":"263.0372","ELEMENT_SET_NO":"999"},{"OBJECT_NAME":"STARLINK-4640","LAUNCH_DATE":"2022-09-05","OBJECT_ID":"2022-107AE","TLE_LINE2":"2 53728  53.2168  77.7658 0001181  90.5679 269.5448 15.08853313 30399","OBJECT_TYPE":"PAYLOAD","COUNTRY_CODE":"US","BSTAR":"0.00072313000000","EPHEMERIS_TYPE":"0","NORAD_CAT_ID":"53728","SITE":"AFETR","SEMIMAJOR_AXIS":"6917.840","MEAN_ELEMENT_THEORY":"SGP4","PERIOD":"95.437","ECCENTRICITY":"0.00011810","EPOCH":"2023-03-22T06:18:50.909472","MEAN_MOTION_DDOT":"0.0000000000000","DECAY_DATE":null,"GP_ID":"228630329","TLE_LINE1":"1 53728U 22107AE  23081.26308923  .00011244  00000-0  72313-3 0  9995","ARG_OF_PERICENTER":"90.5679","RCS_SIZE":"LARGE","REV_AT_EPOCH":"3039","INCLINATION":"53.2168","RA_OF_ASC_NODE":"77.7658","TIME_SYSTEM":"UTC","CENTER_NAME":"EARTH","APOAPSIS":"540.522","MEAN_MOTION_DOT":"0.00011244","PERIAPSIS":"538.888","FILE":"3867232","ELEMENT_SET_NO":"999","CLASSIFICATION_TYPE":"U","REF_FRAME":"TEME","MEAN_MOTION":"15.08853313","MEAN_ANOMALY":"269.5448"},{"GP_ID":"228629831","TLE_LINE1":"1 53729U 22107AF  23081.27782872  .00002195  00000-0  15595-3 0  9990","ARG_OF_PERICENTER":"91.5630","RCS_SIZE":"LARGE","REV_AT_EPOCH":"3039","EPOCH":"2023-03-22T06:40:04.401408","MEAN_MOTION_DDOT":"0.0000000000000","DECAY_DATE":null,"ECCENTRICITY":"0.00009790","MEAN_ELEMENT_THEORY":"SGP4","PERIOD":"95.437","OBJECT_TYPE":"PAYLOAD","BSTAR":"0.00015595000000","COUNTRY_CODE":"US","EPHEMERIS_TYPE":"0","SITE":"AFETR","SEMIMAJOR_AXIS":"6917.875","NORAD_CAT_ID":"53729","OBJECT_ID":"2022-107AF","LAUNCH_DATE":"2022-09-05","TLE_LINE2":"2 53729  53.2167  77.8564 0000979  91.5630 268.5475 15.08841792 30395","OBJECT_NAME":"STARLINK-4651","CLASSIFICATION_TYPE":"U","MEAN_MOTION":"15.08841792","REF_FRAME":"TEME","MEAN_ANOMALY":"268.5475","ELEMENT_SET_NO":"999","FILE":"3867232","PERIAPSIS":"539.063","APOAPSIS":"540.417","MEAN_MOTION_DOT":"0.00002195","CENTER_NAME":"EARTH","TIME_SYSTEM":"UTC","INCLINATION":"53.2167","RA_OF_ASC_NODE":"77.8564"},{"FILE":"3867232","PERIAPSIS":"539.089","CLASSIFICATION_TYPE":"U","REF_FRAME":"TEME","MEAN_MOTION":"15.08839644","MEAN_ANOMALY":"277.5648","ELEMENT_SET_NO":"999","TIME_SYSTEM":"UTC","INCLINATION":"53.2183","RA_OF_ASC_NODE":"77.8127","APOAPSIS":"540.404","MEAN_MOTION_DOT":"0.00000923","CENTER_NAME":"EARTH","ECCENTRICITY":"0.00009510","MEAN_ELEMENT_THEORY":"SGP4","PERIOD":"95.438","GP_ID":"228629821","TLE_LINE1":"1 53730U 22107AG  23081.27045416  .00000923  00000-0  76038-4 0  9995","RCS_SIZE":"LARGE","ARG_OF_PERICENTER":"82.5452","REV_AT_EPOCH":"3039","EPOCH":"2023-03-22T06:29:27.239424","DECAY_DATE":null,"MEAN_MOTION_DDOT":"0.0000000000000","OBJECT_ID":"2022-107AG","LAUNCH_DATE":"2022-09-05","TLE_LINE2":"2 53730  53.2183  77.8127 0000951  82.5452 277.5648 15.08839644 30397","OBJECT_NAME":"STARLINK-4641","OBJECT_TYPE":"PAYLOAD","COUNTRY_CODE":"US","BSTAR":"0.00007603800000","EPHEMERIS_TYPE":"0","SITE":"AFETR","NORAD_CAT_ID":"53730","SEMIMAJOR_AXIS":"6917.881"},{"MEAN_ELEMENT_THEORY":"SGP4","PERIOD":"95.438","ECCENTRICITY":"0.00016340","EPOCH":"2023-03-22T05:09:59.676192","DECAY_DATE":null,"MEAN_MOTION_DDOT":"0.0000000000000","TLE_LINE1":"1 53731U 22107AH  23081.21527403  .00001131  00000-0  89146-4 0  9997","GP_ID":"228629827","REV_AT_EPOCH":"3038","ARG_OF_PERICENTER":"115.4431","RCS_SIZE":"LARGE","OBJECT_NAME":"STARLINK-4636","TLE_LINE2":"2 53731  53.2172  78.1779 0001634 115.4431 244.6730 15.08837834 30380","OBJECT_ID":"2022-107AH","LAUNCH_DATE":"2022-09-05","COUNTRY_CODE":"US","BSTAR":"0.00008914600000","OBJECT_TYPE":"PAYLOAD","SEMIMAJOR_AXIS":"6917.887","SITE":"AFETR","NORAD_CAT_ID":"53731","EPHEMERIS_TYPE":"0","PERIAPSIS":"538.622","FILE":"3867232","ELEMENT_SET_NO":"999","REF_FRAME":"TEME","MEAN_MOTION":"15.08837834","CLASSIFICATION_TYPE":"U","MEAN_ANOMALY":"244.6730","INCLINATION":"53.2172","RA_OF_ASC_NODE":"78.1779","TIME_SYSTEM":"UTC","CENTER_NAME":"EARTH","MEAN_MOTION_DOT":"0.00001131","APOAPSIS":"540.882"},{"ELEMENT_SET_NO":"999","CLASSIFICATION_TYPE":"U","REF_FRAME":"TEME","MEAN_MOTION":"15.08847162","MEAN_ANOMALY":"253.5155","PERIAPSIS":"538.780","FILE":"3867861","CENTER_NAME":"EARTH","APOAPSIS":"540.667","MEAN_MOTION_DOT":"0.00006248","INCLINATION":"53.2181","RA_OF_ASC_NODE":"76.0456","TIME_SYSTEM":"UTC","EPOCH":"2023-03-22T16:07:04.855008","DECAY_DATE":null,"MEAN_MOTION_DDOT":"0.0000000000000","TLE_LINE1":"1 53732U 22107AJ  23081.67158397  .00006248  00000-0  41024-3 0  9996","GP_ID":"228643329","RCS_SIZE":"LARGE","ARG_OF_PERICENTER":"106.5987","REV_AT_EPOCH":"3045","MEAN_ELEMENT_THEORY":"SGP4","PERIOD":"95.437","ECCENTRICITY":"0.00013640","OBJECT_TYPE":"PAYLOAD","BSTAR":"0.00041024000000","COUNTRY_CODE":"US","EPHEMERIS_TYPE":"0","SEMIMAJOR_AXIS":"6917.858","SITE":"AFETR","NORAD_CAT_ID":"53732","OBJECT_NAME":"STARLINK-4661","OBJECT_ID":"2022-107AJ","LAUNCH_DATE":"2022-09-05","TLE_LINE2":"2 53732  53.2181  76.0456 0001364 106.5987 253.5155 15.08847162 30450"},{"TIME_SYSTEM":"UTC","RA_OF_ASC_NODE":"78.2234","INCLINATION":"53.2165","APOAPSIS":"540.643","MEAN_MOTION_DOT":"0.00003802","CENTER_NAME":"EARTH","FILE":"3867238","PERIAPSIS":"538.818","MEAN_ANOMALY":"279.2770","CLASSIFICATION_TYPE":"U","REF_FRAME":"TEME","MEAN_MOTION":"15.08844931","ELEMENT_SET_NO":"999","LAUNCH_DATE":"2022-09-05","OBJECT_ID":"2022-107AK","TLE_LINE2":"2 53733  53.2165  78.2234 0001319  80.8371 279.2770 15.08844931 30383","OBJECT_NAME":"STARLINK-4574","EPHEMERIS_TYPE":"0","SEMIMAJOR_AXIS":"6917.865","SITE":"AFETR","NORAD_CAT_ID":"53733","OBJECT_TYPE":"PAYLOAD","COUNTRY_CODE":"US","BSTAR":"0.00025678000000","ECCENTRICITY":"0.00013190","PERIOD":"95.437","MEAN_ELEMENT_THEORY":"SGP4","ARG_OF_PERICENTER":"80.8371","RCS_SIZE":"LARGE","REV_AT_EPOCH":"3038","GP_ID":"228630341","TLE_LINE1":"1 53733U 22107AK  23081.22264324  .00003802  00000-0  25678-3 0  9996","MEAN_MOTION_DDOT":"0.0000000000000","DECAY_DATE":null,"EPOCH":"2023-03-22T05:20:36.375936"}];
